*******************************************************************************
JPL/HORIZONS                2067 Aksnes (1936 DD)          2023-Sep-04 11:15:47
Rec #:    2067 (+COV) Soln.date: 2023-Aug-22_15:53:22   # obs: 7639 (1936-2023)
 
IAU76/J2000 helio. ecliptic osc. elements (au, days, deg., period=Julian yrs):
 
  EPOCH=  2457796.5 ! 2017-Feb-12.00 (TDB)         Residual RMS= .2448
   EC= .1815810403850895   QR= 3.243930696646337   TP= 2456469.4671466765
   OM= 150.2435196384118   W=  297.3712085221198   IN= 3.07976797919732
   A= 3.963655360785751    MA= 165.7455664713205   ADIST= 4.683380024925165
   PER= 7.89136            N= .124899369           ANGMOM= .033678209
   DAN= 3.53764            DDN= 4.1821             L= 87.6485529
   B= -2.7346986           MOID= 2.26209998        TP= 2013-Jun-25.9671466765
 
Asteroid physical parameters (km, seconds, rotational period in hours):
   GM= n.a.                RAD= 23.0015            ROTPER= 17.677
   H= 10.59                G= .150                 B-V= .658
                           ALBEDO= .054            STYP= P

ASTEROID comments: 
1: soln ref.= JPL#62, OCC=0
2: source=ORB
*******************************************************************************


*******************************************************************************
Ephemeris / API_USER Mon Sep  4 11:15:47 2023 Pasadena, USA      / Horizons
*******************************************************************************
Target body name: 2067 Aksnes (1936 DD)           {source: JPL#62}
Center body name: Solar System Barycenter (0)     {source: DE441}
Center-site name: BODY CENTER
*******************************************************************************
Start time      : A.D. 2023-Aug-12 00:00:00.0000 TDB
Stop  time      : A.D. 2023-Aug-13 00:00:00.0000 TDB
Step-size       : 2880 minutes
*******************************************************************************
Center geodetic : 0.0, 0.0, 0.0                   {E-lon(deg),Lat(deg),Alt(km)}
Center cylindric: 0.0, 0.0, 0.0                   {E-lon(deg),Dxy(km),Dz(km)}
Center radii    : (undefined)
Small perturbers: Yes                             {source: SB441-N16}
Output units    : KM-S
Calendar mode   : Mixed Julian/Gregorian
Output type     : GEOMETRIC cartesian states
Output format   : 2 (position and velocity)
Reference frame : Ecliptic of J2000.0
*******************************************************************************
Initial IAU76/J2000 heliocentric ecliptic osculating elements (au, days, deg.):
  EPOCH=  2457796.5 ! 2017-Feb-12.00 (TDB)         Residual RMS= .2448         
   EC= .1815810403850895   QR= 3.243930696646337   TP= 2456469.4671466765      
   OM= 150.2435196384118   W=  297.3712085221198   IN= 3.07976797919732        
  Equivalent ICRF heliocentric cartesian coordinates (au, au/d):
   X=-1.002916616280289E+00  Y=-4.271732677434861E+00  Z=-1.591081041868981E+00
  VX= 6.984476646435895E-03 VY=-1.638764086458226E-03 VZ=-8.206130408865886E-04
Asteroid physical parameters (km, seconds, rotational period in hours):        
   GM= n.a.                RAD= 23.0015            ROTPER= 17.677              
   H= 10.59                G= .150                 B-V= .658                   
                           ALBEDO= .054            STYP= P                     
*******************************************************************************
JDTDB
   X     Y     Z
   VX    VY    VZ
*******************************************************************************
$$SOE
2460168.500000000 = A.D. 2023-Aug-12 00:00:00.0000 TDB 
 X =-5.583817269712679E+08 Y =-3.026826558646832E+08 Z = 2.903833972934426E+07
 VX= 4.489419494985968E+00 VY=-1.322744694348018E+01 VZ= 4.971554280158204E-01
$$EOE
*******************************************************************************
 
TIME

  Barycentric Dynamical Time ("TDB" or T_eph) output was requested. This
continuous coordinate time is equivalent to the relativistic proper time
of a clock at rest in a reference frame co-moving with the solar system
barycenter but outside the system's gravity well. It is the independent
variable in the solar system relativistic equations of motion.

  TDB runs at a uniform rate of one SI second per second and is independent
of irregularities in Earth's rotation.
 
CALENDAR SYSTEM

  Mixed calendar mode was active such that calendar dates after AD 1582-Oct-15
(if any) are in the modern Gregorian system. Dates prior to 1582-Oct-5 (if any)
are in the Julian calendar system, which is automatically extended for dates
prior to its adoption on 45-Jan-1 BC.  The Julian calendar is useful for
matching historical dates. The Gregorian calendar more accurately corresponds
to the Earth's orbital motion and seasons. A "Gregorian-only" calendar mode is
available if such physical events are the primary interest.

REFERENCE FRAME AND COORDINATES

  Ecliptic at the standard reference epoch

    Reference epoch: J2000.0
    X-Y plane: adopted Earth orbital plane at the reference epoch
               Note: IAU76 obliquity of 84381.448 arcseconds wrt ICRF X-Y plane
    X-axis   : ICRF
    Z-axis   : perpendicular to the X-Y plane in the directional (+ or -) sense
               of Earth's north pole at the reference epoch.

  Symbol meaning:

    JDTDB    Julian Day Number, Barycentric Dynamical Time
      X      X-component of position vector (km)
      Y      Y-component of position vector (km)
      Z      Z-component of position vector (km)
      VX     X-component of velocity vector (km/sec)                           
      VY     Y-component of velocity vector (km/sec)                           
      VZ     Z-component of velocity vector (km/sec)                           

ABERRATIONS AND CORRECTIONS

 Geometric state vectors have NO corrections or aberrations applied.

Computations by ...

    Solar System Dynamics Group, Horizons On-Line Ephemeris System
    4800 Oak Grove Drive, Jet Propulsion Laboratory
    Pasadena, CA  91109   USA

    General site: https://ssd.jpl.nasa.gov/
    Mailing list: https://ssd.jpl.nasa.gov/email_list.html
    System news : https://ssd.jpl.nasa.gov/horizons/news.html
    User Guide  : https://ssd.jpl.nasa.gov/horizons/manual.html
    Connect     : browser        https://ssd.jpl.nasa.gov/horizons/app.html#/x
                  API            https://ssd-api.jpl.nasa.gov/doc/horizons.html
                  command-line   telnet ssd.jpl.nasa.gov 6775
                  e-mail/batch   https://ssd.jpl.nasa.gov/ftp/ssd/hrzn_batch.txt
                  scripts        https://ssd.jpl.nasa.gov/ftp/ssd/SCRIPTS
    Author      : Jon.D.Giorgini@jpl.nasa.gov
*******************************************************************************
